{
    "links": {
        "self": "http://www.neowsapp.com/rest/v1/neo/54087425?api_key=iIulBulltgU6a56xZRHN4H3l9WmuAYTsLGpBGhQ2"
    },
    "id": "54087425",
    "neo_reference_id": "54087425",
    "name": "(2020 VP)",
    "designation": "2020 VP",
    "nasa_jpl_url": "http://ssd.jpl.nasa.gov/sbdb.cgi?sstr=54087425",
    "absolute_magnitude_h": 24.361,
    "estimated_diameter": {
        "kilometers": {
            "estimated_diameter_min": 0.0356742603,
            "estimated_diameter_max": 0.079770071
        },
        "meters": {
            "estimated_diameter_min": 35.6742602797,
            "estimated_diameter_max": 79.7700710323
        },
        "miles": {
            "estimated_diameter_min": 0.0221669508,
            "estimated_diameter_max": 0.0495668088
        },
        "feet": {
            "estimated_diameter_min": 117.0415400959,
            "estimated_diameter_max": 261.7128398457
        }
    },
    "is_potentially_hazardous_asteroid": false,
    "close_approach_data": [
        {
            "close_approach_date": "2016-12-04",
            "close_approach_date_full": "2016-Dec-04 03:04",
            "epoch_date_close_approach": 1480820640000,
            "relative_velocity": {
                "kilometers_per_second": "19.028141522",
                "kilometers_per_hour": "68501.3094793757",
                "miles_per_hour": "42564.049770671"
            },
            "miss_distance": {
                "astronomical": "0.3743289303",
                "lunar": "145.6139538867",
                "kilometers": "55998810.652258461",
                "miles": "34796047.4251543218"
            },
            "orbiting_body": "Earth"
        },
        {
            "close_approach_date": "2020-11-05",
            "close_approach_date_full": "2020-Nov-05 03:42",
            "epoch_date_close_approach": 1604547720000,
            "relative_velocity": {
                "kilometers_per_second": "9.2526614195",
                "kilometers_per_hour": "33309.5811100222",
                "miles_per_hour": "20697.2783291691"
            },
            "miss_distance": {
                "astronomical": "0.0712490403",
                "lunar": "27.7158766767",
                "kilometers": "10658704.668424161",
                "miles": "6623011.9678129818"
            },
            "orbiting_body": "Earth"
        },
        {
            "close_approach_date": "2028-08-24",
            "close_approach_date_full": "2028-Aug-24 03:49",
            "epoch_date_close_approach": 1850701740000,
            "relative_velocity": {
                "kilometers_per_second": "18.8043125028",
                "kilometers_per_hour": "67695.5250102514",
                "miles_per_hour": "42063.3666376198"
            },
            "miss_distance": {
                "astronomical": "0.3868072116",
                "lunar": "150.4680053124",
                "kilometers": "57865534.955999292",
                "miles": "35955976.1208905496"
            },
            "orbiting_body": "Earth"
        }
    ],
    "orbital_data": {
        "orbit_id": "11",
        "orbit_determination_date": "2020-12-06 05:25:10",
        "first_observation_date": "2020-11-03",
        "last_observation_date": "2020-12-05",
        "data_arc_in_days": 32,
        "observations_used": 80,
        "orbit_uncertainty": "7",
        "minimum_orbit_intersection": ".034781",
        "jupiter_tisserand_invariant": "3.196",
        "epoch_osculation": "2459000.5",
        "eccentricity": ".5898330747480383",
        "semi_major_axis": "2.500694841415508",
        "inclination": "5.244189942145166",
        "ascending_node_longitude": "36.52758967401837",
        "orbital_period": "1444.406633237411",
        "perihelion_distance": "1.025702314096841",
        "perihelion_argument": "347.1594290850094",
        "aphelion_distance": "3.975687368734175",
        "perihelion_time": "2459144.819851960133",
        "mean_anomaly": "324.0301106972913",
        "mean_motion": ".2492372935127808",
        "equinox": "J2000",
        "orbit_class": {
            "orbit_class_type": "AMO",
            "orbit_class_description": "Near-Earth asteroid orbits similar to that of 1221 Amor",
            "orbit_class_range": "1.017 AU < q (perihelion) < 1.3 AU"
        }
    },
    "is_sentry_object": false
}